STARLINK-30962          
1 58458U 23183X   26068.30330837 -.00001070  00000+0 -30200-4 0  9994
2 58458  43.0039  43.0767 0002305 272.6692  87.3895 15.26735702126683
FLOCK 4G-30             
1 62679U 25009BY  26068.70871344  .00013147  00000+0  49475-3 0  9999
2 62679  97.3969 150.6012 0003795 342.4152  17.6955 15.27244548121341
